CCSDS_OMM_VERS = 2.0
CREATION_DATE  = 
ORIGINATOR     = 

OBJECT_NAME    = ATLAS CENTAUR R/B
OBJECT_ID      = 1972-065B
CENTER_NAME    = EARTH
REF_FRAME      = TEME
TIME_SYSTEM    = UTC
MEAN_ELEMENT_THEORY = SGP/SGP4

EPOCH          = 2026-01-19T07:11:43.573632
MEAN_MOTION    = 14.77517080
ECCENTRICITY   = .00344132
INCLINATION    = 35.0005
RA_OF_ASC_NODE = 235.1627
ARG_OF_PERICENTER = 313.8425
MEAN_ANOMALY   = 45.9434

EPHEMERIS_TYPE = 0
CLASSIFICATION_TYPE = U
NORAD_CAT_ID   = 6155
ELEMENT_SET_NO = 999
REV_AT_EPOCH   = 83395
BSTAR          = .13776929E-3
MEAN_MOTION_DOT = .985E-5
MEAN_MOTION_DDOT = 0

CCSDS_OMM_VERS = 2.0
CREATION_DATE  = 
ORIGINATOR     = 

OBJECT_NAME    = SL-8 R/B
OBJECT_ID      = 1975-112B
CENTER_NAME    = EARTH
REF_FRAME      = TEME
TIME_SYSTEM    = UTC
MEAN_ELEMENT_THEORY = SGP/SGP4

EPOCH          = 2026-01-19T07:46:48.540288
MEAN_MOTION    = 14.38172527
ECCENTRICITY   = .00162712
INCLINATION    = 74.0611
RA_OF_ASC_NODE = 109.7273
ARG_OF_PERICENTER = 217.1678
MEAN_ANOMALY   = 142.8351

EPHEMERIS_TYPE = 0
CLASSIFICATION_TYPE = U
NORAD_CAT_ID   = 8459
ELEMENT_SET_NO = 999
REV_AT_EPOCH   = 62477
BSTAR          = .98806214E-4
MEAN_MOTION_DOT = .274E-5
MEAN_MOTION_DDOT = 0

CCSDS_OMM_VERS = 2.0
CREATION_DATE  = 
ORIGINATOR     = 

OBJECT_NAME    = SL-3 R/B
OBJECT_ID      = 1977-057B
CENTER_NAME    = EARTH
REF_FRAME      = TEME
TIME_SYSTEM    = UTC
MEAN_ELEMENT_THEORY = SGP/SGP4

EPOCH          = 2026-01-19T07:03:02.420928
MEAN_MOTION    = 15.43947601
ECCENTRICITY   = .00085836
INCLINATION    = 97.5702
RA_OF_ASC_NODE = 189.1180
ARG_OF_PERICENTER = 100.0210
MEAN_ANOMALY   = 260.2006

EPHEMERIS_TYPE = 0
CLASSIFICATION_TYPE = U
NORAD_CAT_ID   = 10114
ELEMENT_SET_NO = 999
REV_AT_EPOCH   = 66070
BSTAR          = .29577042E-3
MEAN_MOTION_DOT = .13388E-3
MEAN_MOTION_DDOT = 0

CCSDS_OMM_VERS = 2.0
CREATION_DATE  = 
ORIGINATOR     = 

OBJECT_NAME    = SEASAT 1
OBJECT_ID      = 1978-064A
CENTER_NAME    = EARTH
REF_FRAME      = TEME
TIME_SYSTEM    = UTC
MEAN_ELEMENT_THEORY = SGP/SGP4

EPOCH          = 2026-01-19T05:52:26.749056
MEAN_MOTION    = 14.46106760
ECCENTRICITY   = .00011962
INCLINATION    = 108.0163
RA_OF_ASC_NODE = 21.7309
ARG_OF_PERICENTER = 280.8082
MEAN_ANOMALY   = 79.2929

EPHEMERIS_TYPE = 0
CLASSIFICATION_TYPE = U
NORAD_CAT_ID   = 10967
ELEMENT_SET_NO = 999
REV_AT_EPOCH   = 49936
BSTAR          = .12690406E-3
MEAN_MOTION_DOT = .316E-5
MEAN_MOTION_DDOT = 0

CCSDS_OMM_VERS = 2.0
CREATION_DATE  = 
ORIGINATOR     = 

OBJECT_NAME    = SL-14 R/B
OBJECT_ID      = 1979-011B
CENTER_NAME    = EARTH
REF_FRAME      = TEME
TIME_SYSTEM    = UTC
MEAN_ELEMENT_THEORY = SGP/SGP4

EPOCH          = 2026-01-19T06:47:22.199712
MEAN_MOTION    = 14.91828327
ECCENTRICITY   = .00151362
INCLINATION    = 82.5259
RA_OF_ASC_NODE = 143.4393
ARG_OF_PERICENTER = 218.5550
MEAN_ANOMALY   = 141.4590

EPHEMERIS_TYPE = 0
CLASSIFICATION_TYPE = U
NORAD_CAT_ID   = 11267
ELEMENT_SET_NO = 999
REV_AT_EPOCH   = 52141
BSTAR          = .68932788E-4
MEAN_MOTION_DOT = .722E-5
MEAN_MOTION_DDOT = 0

CCSDS_OMM_VERS = 2.0
CREATION_DATE  = 
ORIGINATOR     = 

OBJECT_NAME    = SL-8 R/B
OBJECT_ID      = 1979-089B
CENTER_NAME    = EARTH
REF_FRAME      = TEME
TIME_SYSTEM    = UTC
MEAN_ELEMENT_THEORY = SGP/SGP4

EPOCH          = 2026-01-19T03:40:19.431552
MEAN_MOTION    = 14.42310866
ECCENTRICITY   = .00156778
INCLINATION    = 74.0678
RA_OF_ASC_NODE = 182.7327
ARG_OF_PERICENTER = 3.4776
MEAN_ANOMALY   = 356.6486

EPHEMERIS_TYPE = 0
CLASSIFICATION_TYPE = U
NORAD_CAT_ID   = 11574
ELEMENT_SET_NO = 999
REV_AT_EPOCH   = 42896
BSTAR          = .11985447E-3
MEAN_MOTION_DOT = .37E-5
MEAN_MOTION_DDOT = 0

CCSDS_OMM_VERS = 2.0
CREATION_DATE  = 
ORIGINATOR     = 

OBJECT_NAME    = SL-14 R/B
OBJECT_ID      = 1980-005B
CENTER_NAME    = EARTH
REF_FRAME      = TEME
TIME_SYSTEM    = UTC
MEAN_ELEMENT_THEORY = SGP/SGP4

EPOCH          = 2026-01-19T04:42:47.173248
MEAN_MOTION    = 14.90845904
ECCENTRICITY   = .00150294
INCLINATION    = 82.5153
RA_OF_ASC_NODE = 354.1700
ARG_OF_PERICENTER = 334.2703
MEAN_ANOMALY   = 25.7766

EPHEMERIS_TYPE = 0
CLASSIFICATION_TYPE = U
NORAD_CAT_ID   = 11672
ELEMENT_SET_NO = 999
REV_AT_EPOCH   = 46911
BSTAR          = .61296217E-4
MEAN_MOTION_DOT = .63E-5
MEAN_MOTION_DDOT = 0

CCSDS_OMM_VERS = 2.0
CREATION_DATE  = 
ORIGINATOR     = 

OBJECT_NAME    = SL-8 R/B
OBJECT_ID      = 1981-003B
CENTER_NAME    = EARTH
REF_FRAME      = TEME
TIME_SYSTEM    = UTC
MEAN_ELEMENT_THEORY = SGP/SGP4

EPOCH          = 2026-01-19T07:11:29.140512
MEAN_MOTION    = 15.08702588
ECCENTRICITY   = .02701983
INCLINATION    = 82.9395
RA_OF_ASC_NODE = 335.6261
ARG_OF_PERICENTER = 351.2255
MEAN_ANOMALY   = 8.4294

EPHEMERIS_TYPE = 0
CLASSIFICATION_TYPE = U
NORAD_CAT_ID   = 12139
ELEMENT_SET_NO = 999
REV_AT_EPOCH   = 30722
BSTAR          = .77932003E-3
MEAN_MOTION_DOT = .29392E-3
MEAN_MOTION_DDOT = 0

CCSDS_OMM_VERS = 2.0
CREATION_DATE  = 
ORIGINATOR     = 

OBJECT_NAME    = SL-3 R/B
OBJECT_ID      = 1981-046B
CENTER_NAME    = EARTH
REF_FRAME      = TEME
TIME_SYSTEM    = UTC
MEAN_ELEMENT_THEORY = SGP/SGP4

EPOCH          = 2026-01-19T07:32:18.170880
MEAN_MOTION    = 15.40503399
ECCENTRICITY   = .00190119
INCLINATION    = 81.2334
RA_OF_ASC_NODE = 348.9540
ARG_OF_PERICENTER = 185.4532
MEAN_ANOMALY   = 174.6506

EPHEMERIS_TYPE = 0
CLASSIFICATION_TYPE = U
NORAD_CAT_ID   = 12465
ELEMENT_SET_NO = 999
REV_AT_EPOCH   = 43082
BSTAR          = .30364212E-3
MEAN_MOTION_DOT = .12428E-3
MEAN_MOTION_DDOT = 0

CCSDS_OMM_VERS = 2.0
CREATION_DATE  = 
ORIGINATOR     = 

OBJECT_NAME    = SL-3 R/B
OBJECT_ID      = 1981-103B
CENTER_NAME    = EARTH
REF_FRAME      = TEME
TIME_SYSTEM    = UTC
MEAN_ELEMENT_THEORY = SGP/SGP4

EPOCH          = 2026-01-19T05:41:21.225408
MEAN_MOTION    = 15.20715204
ECCENTRICITY   = .00144725
INCLINATION    = 81.1590
RA_OF_ASC_NODE = 271.4268
ARG_OF_PERICENTER = 90.6004
MEAN_ANOMALY   = 269.6885

EPHEMERIS_TYPE = 0
CLASSIFICATION_TYPE = U
NORAD_CAT_ID   = 12904
ELEMENT_SET_NO = 999
REV_AT_EPOCH   = 96571
BSTAR          = .26577119E-3
MEAN_MOTION_DOT = .5884E-4
MEAN_MOTION_DDOT = 0

CCSDS_OMM_VERS = 2.0
CREATION_DATE  = 
ORIGINATOR     = 

OBJECT_NAME    = SL-3 R/B
OBJECT_ID      = 1982-013B
CENTER_NAME    = EARTH
REF_FRAME      = TEME
TIME_SYSTEM    = UTC
MEAN_ELEMENT_THEORY = SGP/SGP4

EPOCH          = 2026-01-19T06:24:10.046016
MEAN_MOTION    = 15.21434223
ECCENTRICITY   = .00226328
INCLINATION    = 81.1719
RA_OF_ASC_NODE = 218.6712
ARG_OF_PERICENTER = 348.7447
MEAN_ANOMALY   = 11.3275

EPHEMERIS_TYPE = 0
CLASSIFICATION_TYPE = U
NORAD_CAT_ID   = 13068
ELEMENT_SET_NO = 999
REV_AT_EPOCH   = 39683
BSTAR          = .16943446E-3
MEAN_MOTION_DOT = .3855E-4
MEAN_MOTION_DDOT = 0

CCSDS_OMM_VERS = 2.0
CREATION_DATE  = 
ORIGINATOR     = 

OBJECT_NAME    = SL-3 R/B
OBJECT_ID      = 1982-039B
CENTER_NAME    = EARTH
REF_FRAME      = TEME
TIME_SYSTEM    = UTC
MEAN_ELEMENT_THEORY = SGP/SGP4

EPOCH          = 2026-01-19T03:42:21.691872
MEAN_MOTION    = 15.09764636
ECCENTRICITY   = .00299782
INCLINATION    = 81.1670
RA_OF_ASC_NODE = 273.0410
ARG_OF_PERICENTER = 126.5592
MEAN_ANOMALY   = 233.8400

EPHEMERIS_TYPE = 0
CLASSIFICATION_TYPE = U
NORAD_CAT_ID   = 13154
ELEMENT_SET_NO = 999
REV_AT_EPOCH   = 37416
BSTAR          = .14673167E-3
MEAN_MOTION_DOT = .2417E-4
MEAN_MOTION_DDOT = 0

