ATLAS CENTAUR R/B       
1 06155U 72065B   26019.29980988  .00000985  00000+0  13777-3 0  9997
2 06155  35.0005 235.1627 0034413 313.8425  45.9434 14.77517080833956
SL-8 R/B                
1 08459U 75112B   26019.32417292  .00000274  00000+0  98806-4 0  9997
2 08459  74.0611 109.7273 0016271 217.1678 142.8351 14.38172527624775
SL-3 R/B                
1 10114U 77057B   26019.29377802  .00013388  00000+0  29577-3 0  9994
2 10114  97.5702 189.1180 0008583 100.0210 260.2006 15.43947601660700
SEASAT 1                
1 10967U 78064A   26019.24475404  .00000316  00000+0  12690-3 0  9996
2 10967 108.0163  21.7309 0001196 280.8082  79.2929 14.46106760499365
SL-14 R/B               
1 11267U 79011B   26019.28289583  .00000722  00000+0  68933-4 0  9991
2 11267  82.5259 143.4393 0015136 218.5550 141.4590 14.91828327521411
SL-8 R/B                
1 11574U 79089B   26019.15300268  .00000370  00000+0  11985-3 0  9990
2 11574  74.0678 182.7327 0015677   3.4776 356.6486 14.42310866428967
SL-14 R/B               
1 11672U 80005B   26019.19637932  .00000630  00000+0  61296-4 0  9994
2 11672  82.5153 354.1700 0015029 334.2703  25.7766 14.90845904469110
SL-8 R/B                
1 12139U 81003B   26019.29964283  .00029392  00000+0  77932-3 0  9994
2 12139  82.9395 335.6261 0270198 351.2255   8.4294 15.08702588307225
SL-3 R/B                
1 12465U 81046B   26019.31409920  .00012428  00000+0  30364-3 0  9998
2 12465  81.2334 348.9540 0019011 185.4532 174.6506 15.40503399430829
SL-3 R/B                
1 12904U 81103B   26019.23705122  .00005884  00000+0  26577-3 0  9993
2 12904  81.1590 271.4268 0014472  90.6004 269.6885 15.20715204965718
SL-3 R/B                
1 13068U 82013B   26019.26678294  .00003855  00000+0  16943-3 0  9990
2 13068  81.1719 218.6712 0022632 348.7447  11.3275 15.21434223396831
SL-3 R/B                
1 13154U 82039B   26019.15441773  .00002417  00000+0  14673-3 0  9993
2 13154  81.1670 273.0410 0029978 126.5592 233.8400 15.09764636374169
